[{"OBJECT_NAME":"CONTINUUM-1","OBJECT_ID":"2023-001AN","EPOCH":"2026-03-09T23:17:35.458656","MEAN_MOTION":15.27981258,"ECCENTRICITY":0.00109493,"INCLINATION":97.3456,"RA_OF_ASC_NODE":133.3964,"ARG_OF_PERICENTER":60.1976,"MEAN_ANOMALY":300.0351,"EPHEMERIS_TYPE":0,"CLASSIFICATION_TYPE":"U","NORAD_CAT_ID":55045,"ELEMENT_SET_NO":999,"REV_AT_EPOCH":17709,"BSTAR":0.00052859897,"MEAN_MOTION_DOT":0.00014395,"MEAN_MOTION_DDOT":0},{"OBJECT_NAME":"STARLINK-34489","OBJECT_ID":"2025-139R","EPOCH":"2026-03-09T10:45:59.802048","MEAN_MOTION":15.30197442,"ECCENTRICITY":0.00013422,"INCLINATION":53.1578,"RA_OF_ASC_NODE":128.4109,"ARG_OF_PERICENTER":81.6041,"MEAN_ANOMALY":278.5112,"EPHEMERIS_TYPE":0,"CLASSIFICATION_TYPE":"U","NORAD_CAT_ID":64679,"ELEMENT_SET_NO":999,"REV_AT_EPOCH":4024,"BSTAR":0.00082254865,"MEAN_MOTION_DOT":0.00024079,"MEAN_MOTION_DDOT":0}]
